#dP2022 10 11  6  0  0.00000000      96 __u+U ITR00 EXT  IAC
## 2231 194400.00000000   900.00000000 59863 0.2500000000000
+  118   C06C07C08C09C10C11C12C13C14C16C19C20C21C22C23C24C25
+        C26C27C28C29C30C32C33C34C35C36C37C38C39C40C41C42C43
+        C44C45C46E01E02E03E04E05E07E08E09E10E11E12E13E14E15
+        E18E19E21E24E25E26E27E30E31E33E34E36G01G02G03G04G05
+        G06G07G08G09G10G11G12G13G14G15G16G17G18G19G20G21G22
+        G23G24G25G26G27G28G29G30G31G32J02J03J04R01R02R03R04
+        R05R07R08R09R11R12R13R14R15R17R18R19R20R21R22R24  0
++        10  9 10  9  8 11 11 11  9  9  8 10 10 10  9 10  9
++         9 10  9  9  9  9 10 10  9  9  9 10  9  9  9  9  9
++         9  8  8  9  9  8  8  9  8  8  8  9  8  8  8  8  8
++        10  8  8  9  8  9  8  8  9  9  8  8  8  8  8  8  9
++         8  9  8  8  8  8  8  8  8  8  9  8  8  8  8  8  8
++         8  9  8  9  8  8  9  8  8  8 10  9  9  9 10  8  9
++         9  8  9  8 10  8  9  9  9 10  8  8 10  9  9 10  0
%c M  cc GPS ccc cccc cccc cccc cccc ccccc ccccc ccccc ccccc
%c cc cc ccc ccc cccc cccc cccc cccc ccccc ccccc ccccc ccccc
%f  0.0000000  0.000000000  0.00000000000  0.000000000000000
%f  0.0000000  0.000000000  0.00000000000  0.000000000000000
%i    0    0    0    0      0      0      0      0         0
%i    0    0    0    0      0      0      0      0         0
/* IAC                                ULTRA-RAPID PREDICTION
/* S/V CLOCKS ARE ALIGNED TO GNSS TIME                      
/* G:C1WC2W R:C1PC2P E:C1XC5X C:C2IC6I J:C1CC2S             
/* PCV:IGS14_2218 OL/AL:FES2004  NONE     YN ORB:CoN CLK:CoN
*  2022 10 12  2 45  0.00000000
PC06 -14366.481219  39626.048739  -3478.695706    897.790597
PC07  -3604.597432  30835.411763 -28419.384392   -264.483597
PC08 -16074.574867  21189.337317  32648.168039    492.412373
PC09  -8984.776073  39349.358734 -12716.451073   -837.362834
PC10   3929.874379  33633.946419 -24521.993172     84.924976
PC11  -6527.261067 -19677.347566 -18628.895038   -356.579391
PC12   5840.225940 -27048.563334  -3665.527163   -485.518650
PC13  -6001.555951  23006.009493  34905.701664    104.554566
PC14 -17999.964173 -21196.198205  -2644.104977    564.255159
PC16 -17210.764983  38640.561737   1204.433969    130.072294
PC19  21862.469773  15974.389906  -6707.035583   -856.278620
PC20  12492.575555  22824.773917  10055.948633    866.345446
PC21   5108.350678 -16418.860402 -21976.228643   -584.766883
PC22  19025.858693   -444.113527 -20412.550393   -855.850034
PC23 -27148.808034   6435.233077    292.026489   -513.842107
PC24  -2595.560219 -16122.033535  22624.116773   -570.506777
PC25 -22284.311108  -5683.870534  15785.511243      8.446580
PC26  15599.686833 -16378.312571  16357.952791    -20.220587
PC27 -11132.143336  25132.319684  -4855.105262     34.576164
PC28 -17112.992091  11369.251410 -18874.886177     23.289986
PC29  13492.678780   9847.542344  22349.709350     25.621480
PC30   1788.763637  25285.103542  11684.049391      0.469770
PC32  -5106.101753  16385.502546  22008.516700   -763.253009
PC33 -21954.671304 -15916.806788   6608.253873   -889.886272
PC34  -2598.979634 -24741.433675 -12636.833143     14.758183
PC35  16896.436289 -10403.654220  19604.588313     37.810140
PC36  21757.297190   6573.812304 -16171.346529   -643.475494
PC37 -17108.837949  15663.772747 -15478.434047   -479.859317
PC38 -23349.798412  22229.213222  27088.144241     30.476227
PC39 -17655.059108  37869.811181   6414.525499     -0.610229
PC40  -7151.398474  25753.946371 -32551.206023     -5.860507
PC41 -19344.950076     13.941518  20154.496409   -164.440105
PC42 -11623.255736 -22845.189669 -11018.901680   -457.945992
PC43 -13241.556761 -10714.594932 -22107.806296     19.105356
PC44  10335.302230 -25418.409194   4999.961871     78.727220
PC45  27108.558257  -6684.041850     77.116260     -8.713303
PC46   4648.679044  15505.884104 -22727.919537     -5.715131
PE01 -15958.603402  11086.288985 -22319.127934   -544.964492
PE02  15800.893568 -11190.707965  22398.673845    330.197455
PE03   8508.589165 -21253.771898 -18777.494866   -608.861023
PE04   4931.477879  29051.923931   2808.640559  -1134.745090
PE05  17244.228805   -764.923081 -24050.177783   -135.391810
PE07 -15814.547701 -19832.466905  15260.785262   -712.550377
PE08  -5055.514864 -29038.200894  -2782.017537   -613.897528
PE09  15728.581192  19929.269310 -15213.143951   -690.116337
PE10   5023.789547  16593.319571  23981.952651   -483.060567
PE11  14331.193638   8292.550268  24526.759844   1830.427606
PE12  -4341.908008  21728.658059  19627.053031   -217.408336
PE13 -13629.243107  -8953.854425 -24699.455239    430.669552
PE14   3497.459463  24205.649679   1586.036700     25.190908
PE15   4567.564147 -21783.819037 -19511.782421    714.629643
PE18 -12400.681789 -26817.363607 -12489.349677   -871.857114
PE19 -10045.217575  19013.254075  20342.000220  -4290.005441
PE21 -27827.373524  -1187.986426 -10009.092776   -762.927363
PE24  24019.764559  14299.077880  -9777.114515   -886.337947
PE25  27917.094676   1390.966931   9761.964465   -589.967832
PE26 -23884.375543   9625.943934 -14580.374003  -1716.942095
PE27 -24667.427364 -13724.021687   8901.183136   -413.261668
PE30  -6035.761537 -18070.439610  22648.647224   -909.149183
PE31   7046.494024  18050.881034 -22363.661978   -505.544584
PE33 -19946.582760  21680.777607   2856.760620   -454.620438
PE34  19819.509440 -21789.717062  -3035.193152     -9.020194
PE36  23657.062119  -9000.739770  15351.447065   -444.596100
PG01   9936.061188 -19840.290653 -14643.788314    268.982769
PG02 -11165.456904  21510.839341  11728.929853   -642.709365
PG03   2783.599357 -14884.832308 -21954.080338   -363.434180
PG04   1644.023651 -25638.519208  -6530.526616   -104.985526
PG05 -15078.067668   9290.233768  19654.047836   -100.052254
PG06 -20729.997168   2560.596301 -16385.511798    488.596662
PG07  -5710.602518 -15030.583885  21494.841962    299.582676
PG08   7394.884528 -20137.209950  15379.639808    -88.457448
PG09  -7473.681363 -25058.936151   4449.391052   -284.398667
PG10  23846.772967  11671.280132   3254.796489     -7.111464
PG11 -23255.060068  10948.723528  -6611.318327    -24.886126
PG12  -4156.800909  14773.671126 -21951.483974   -291.205508
PG13 -12955.233223  12799.386686  19095.355748    404.402230
PG14 -22485.631619 -13450.079244   4716.791794    -95.924083
PG15  -5147.684801  21174.485590  14541.557143    -21.637146
PG16  20562.415813  -2509.801732  16602.551847   -526.068178
PG17 -12372.690880 -16622.506198 -16137.356924    667.891092
PG18   6312.461687  13831.926192  21762.326485     17.789864
PG19 -14823.900625  -5823.225451 -21534.308072    222.629983
PG20 -24354.740363   2198.339456  10086.937013    479.107637
PG21  15991.455067 -19911.289630  -5076.725193    158.158555
PG22  15070.616131   2443.532063 -21330.058278    344.080949
PG23  17425.911988  15560.514725  12748.245209     -0.933388
PG24 -11682.014481  21424.576810 -10280.313228    103.174321
PG25   8891.781926  17366.786792 -18433.624611    381.466961
PG26  25456.551479   2295.622459   7718.138516    232.116262
PG27  13229.149405  -8746.504580  21018.244524    199.427443
PG28 -24353.385034  -9263.161739  -3906.809176    330.086417
PG29   4271.078723  25923.489556   3533.565600   -558.939492
PG30 -15983.782904  -6547.040995  20327.207507   -537.226847
PG31  21822.036340  -2969.522987 -15316.692915   -196.479695
PG32  14675.745559  13220.670728 -17699.227265   -260.621199
PJ02 -28733.997579  15672.550362 -21991.339418     -7.025309
PJ03 -25096.057667  32312.710342  -5536.710770     -2.770581
PJ04 -26519.747022  26298.643151  25619.076979    111.767451
PR01 -15537.946521 -20047.698446   2743.020670     16.109130
PR02 -15291.868364  -6999.795146  19186.863246    -22.954261
PR03  -6413.439553   9813.964534  22698.046304     65.319404
PR04   5889.989003  20743.063434  13661.390211    160.855915
PR05  14896.099031  20523.014969  -2891.018941    101.104189
PR07   5937.926447 -10367.814306 -22498.366014     42.415877
PR08  -6046.478948 -20775.380646 -13432.198383    -67.586809
PR09  25356.569468  -1070.266554  -2104.048880     81.553579
PR11   3101.512468 -11057.816227  22788.021558     24.800778
PR12 -16622.293433  -7468.558861  17870.067018     21.953675
PR13 -25239.618651    178.638389   3673.770929    -27.705147
PR14 -19248.578057   8389.893121 -14480.119065     24.206337
PR15  -2108.812241  11119.287586 -22836.631992     93.261607
PR17 -14115.378049  19557.080606  -8218.122601    568.326716
PR18  -7498.814850  22843.094388   8600.115416     46.690965
PR19   1879.075434  15244.747877  20362.323556   -206.940202
PR20  13121.079129  -3986.790692  21510.220420    -80.032891
PR21  13871.302093 -20361.420595   6682.075695   -340.864754
PR22   7827.971391 -22469.546761  -9157.176640     14.262532
PR24 -13591.994798   4843.694639 -21009.093232    119.805899
EOF
